[{"OBJECT_NAME":"YAOGAN-35 01A","OBJECT_ID":"2021-101A","EPOCH":"2026-03-09T18:43:20.235648","MEAN_MOTION":15.24952145,"ECCENTRICITY":0.00056881,"INCLINATION":34.9903,"RA_OF_ASC_NODE":183.8731,"ARG_OF_PERICENTER":189.0601,"MEAN_ANOMALY":171.0012,"EPHEMERIS_TYPE":0,"CLASSIFICATION_TYPE":"U","NORAD_CAT_ID":49390,"ELEMENT_SET_NO":999,"REV_AT_EPOCH":24168,"BSTAR":0.00047335489,"MEAN_MOTION_DOT":0.00012075,"MEAN_MOTION_DDOT":0},{"OBJECT_NAME":"STARLINK-30810","OBJECT_ID":"2023-167D","EPOCH":"2026-03-08T06:33:35.305920","MEAN_MOTION":15.2674031,"ECCENTRICITY":5.138e-5,"INCLINATION":42.9955,"RA_OF_ASC_NODE":150.9596,"ARG_OF_PERICENTER":285.2891,"MEAN_ANOMALY":74.7904,"EPHEMERIS_TYPE":0,"CLASSIFICATION_TYPE":"U","NORAD_CAT_ID":58178,"ELEMENT_SET_NO":999,"REV_AT_EPOCH":13077,"BSTAR":-7.0786315e-5,"MEAN_MOTION_DOT":-2.157e-5,"MEAN_MOTION_DDOT":0}]
