YAOGAN-35 01A           
1 49390U 21101A   26068.78009532  .00012075  00000+0  47335-3 0  9995
2 49390  34.9903 183.8731 0005688 189.0601 171.0012 15.24952145241689
STARLINK-30810          
1 58178U 23167D   26067.27332530 -.00002157  00000+0 -70786-4 0  9992
2 58178  42.9955 150.9596 0000513 285.2891  74.7904 15.26740310130772
